{
  "type": "FeatureCollection",
  "features": [
    {
      "type": "Feature",
      "properties": {
        "norad_id": 42988,
        "name": "SKYSAT-C10",
        "group": "resource",
        "lat": -82.47593129811992,
        "lon": -167.06065690707794,
        "alt_km": 480.7285686197074,
        "timestamp": "2025-12-07T03:52:32.127615+00:00",
        "meta_object_name": "SKYSAT-C10",
        "meta_object_id": "2017-068B",
        "meta_epoch": "2025-12-06T14:09:13.640544",
        "meta_mean_motion": 15.31865572,
        "meta_eccentricity": 0.00052382,
        "meta_inclination": 97.4261,
        "meta_ra_of_asc_node": 111.4252,
        "meta_arg_of_pericenter": 121.0283,
        "meta_mean_anomaly": 239.1474,
        "meta_ephemeris_type": 0,
        "meta_classification_type": "U",
        "meta_norad_cat_id": 42988,
        "meta_element_set_no": 999,
        "meta_rev_at_epoch": 45285,
        "meta_bstar": 0.00059459705,
        "meta_mean_motion_dot": 0.00018246,
        "meta_mean_motion_ddot": 0,
        "tle_line1": "1 42988U 17068B   25340.58974121  .00018246  00000+0  59460-3 0  9991",
        "tle_line2": "2 42988  97.4261 111.4252 0005238 121.0283 239.1474 15.31865572452850"
      },
      "geometry": {
        "type": "Point",
        "coordinates": [
          -167.06065690707794,
          -82.47593129811992
        ]
      }
    },
    {
      "type": "Feature",
      "properties": {
        "norad_id": 42989,
        "name": "SKYSAT-C9",
        "group": "resource",
        "lat": 38.5023729933715,
        "lon": 105.4225916386405,
        "alt_km": 452.7576908689298,
        "timestamp": "2025-12-07T03:52:32.127625+00:00",
        "meta_object_name": "SKYSAT-C9",
        "meta_object_id": "2017-068C",
        "meta_epoch": "2025-12-06T15:11:50.364384",
        "meta_mean_motion": 15.35814657,
        "meta_eccentricity": 0.00106586,
        "meta_inclination": 97.4193,
        "meta_ra_of_asc_node": 110.8406,
        "meta_arg_of_pericenter": 107.5926,
        "meta_mean_anomaly": 252.6483,
        "meta_ephemeris_type": 0,
        "meta_classification_type": "U",
        "meta_norad_cat_id": 42989,
        "meta_element_set_no": 999,
        "meta_rev_at_epoch": 45314,
        "meta_bstar": 0.00060942795,
        "meta_mean_motion_dot": 0.00021226,
        "meta_mean_motion_ddot": 0,
        "tle_line1": "1 42989U 17068C   25340.63322181  .00021226  00000+0  60943-3 0  9991",
        "tle_line2": "2 42989  97.4193 110.8406 0010658 107.5926 252.6483 15.35814657453149"
      },
      "geometry": {
        "type": "Point",
        "coordinates": [
          105.4225916386405,
          38.5023729933715
        ]
      }
    },
    {
      "type": "Feature",
      "properties": {
        "norad_id": 42990,
        "name": "SKYSAT-C8",
        "group": "resource",
        "lat": 70.91968802467339,
        "lon": 88.9778759397796,
        "alt_km": 460.202898271109,
        "timestamp": "2025-12-07T03:52:32.127636+00:00",
        "meta_object_name": "SKYSAT-C8",
        "meta_object_id": "2017-068D",
        "meta_epoch": "2025-12-06T15:01:34.713408",
        "meta_mean_motion": 15.3271899,
        "meta_eccentricity": 0.00020059,
        "meta_inclination": 97.4285,
        "meta_ra_of_asc_node": 110.6013,
        "meta_arg_of_pericenter": 10.7974,
        "meta_mean_anomaly": 349.331,
        "meta_ephemeris_type": 0,
        "meta_classification_type": "U",
        "meta_norad_cat_id": 42990,
        "meta_element_set_no": 999,
        "meta_rev_at_epoch": 45277,
        "meta_bstar": 0.00058197291,
        "meta_mean_motion_dot": 0.00018334,
        "meta_mean_motion_ddot": 0,
        "tle_line1": "1 42990U 17068D   25340.62609622  .00018334  00000+0  58197-3 0  9994",
        "tle_line2": "2 42990  97.4285 110.6013 0002005  10.7974 349.3310 15.32718990452771"
      },
      "geometry": {
        "type": "Point",
        "coordinates": [
          88.9778759397796,
          70.91968802467339
        ]
      }
    },
    {
      "type": "Feature",
      "properties": {
        "norad_id": 42991,
        "name": "SKYSAT-C7",
        "group": "resource",
        "lat": -59.58185446592491,
        "lon": 125.0253864926463,
        "alt_km": 480.34545081471424,
        "timestamp": "2025-12-07T03:52:32.127646+00:00",
        "meta_object_name": "SKYSAT-C7",
        "meta_object_id": "2017-068E",
        "meta_epoch": "2025-12-06T15:35:57.859872",
        "meta_mean_motion": 15.32127942,
        "meta_eccentricity": 0.00078449,
        "meta_inclination": 97.4291,
        "meta_ra_of_asc_node": 111.6713,
        "meta_arg_of_pericenter": 76.0045,
        "meta_mean_anomaly": 284.2069,
        "meta_ephemeris_type": 0,
        "meta_classification_type": "U",
        "meta_norad_cat_id": 42991,
        "meta_element_set_no": 999,
        "meta_rev_at_epoch": 45284,
        "meta_bstar": 0.00061093772,
        "meta_mean_motion_dot": 0.00018915,
        "meta_mean_motion_ddot": 0,
        "tle_line1": "1 42991U 17068E   25340.64997523  .00018915  00000+0  61094-3 0  9992",
        "tle_line2": "2 42991  97.4291 111.6713 0007844  76.0045 284.2069 15.32127942452844"
      },
      "geometry": {
        "type": "Point",
        "coordinates": [
          125.0253864926463,
          -59.58185446592491
        ]
      }
    },
    {
      "type": "Feature",
      "properties": {
        "norad_id": 42992,
        "name": "SKYSAT-C6",
        "group": "resource",
        "lat": 71.74548750869607,
        "lon": 89.31217072842936,
        "alt_km": 461.73770153396435,
        "timestamp": "2025-12-07T03:52:32.127657+00:00",
        "meta_object_name": "SKYSAT-C6",
        "meta_object_id": "2017-068F",
        "meta_epoch": "2025-12-06T08:44:14.202528",
        "meta_mean_motion": 15.31291462,
        "meta_eccentricity": 0.0005184,
        "meta_inclination": 97.4325,
        "meta_ra_of_asc_node": 111.8281,
        "meta_arg_of_pericenter": 100.3236,
        "meta_mean_anomaly": 259.859,
        "meta_ephemeris_type": 0,
        "meta_classification_type": "U",
        "meta_norad_cat_id": 42992,
        "meta_element_set_no": 999,
        "meta_rev_at_epoch": 45278,
        "meta_bstar": 0.00058320518,
        "meta_mean_motion_dot": 0.00017576,
        "meta_mean_motion_ddot": 0,
        "tle_line1": "1 42992U 17068F   25340.36405327  .00017576  00000+0  58321-3 0  9999",
        "tle_line2": "2 42992  97.4325 111.8281 0005184 100.3236 259.8590 15.31291462452781"
      },
      "geometry": {
        "type": "Point",
        "coordinates": [
          89.31217072842936,
          71.74548750869607
        ]
      }
    },
    {
      "type": "Feature",
      "properties": {
        "norad_id": 43111,
        "name": "CARTOSAT-2F",
        "group": "resource",
        "lat": 62.706816959055374,
        "lon": 24.234155961620292,
        "alt_km": 502.0501040746349,
        "timestamp": "2025-12-07T03:52:32.127667+00:00",
        "meta_object_name": "CARTOSAT-2F",
        "meta_object_id": "2018-004A",
        "meta_epoch": "2025-12-06T14:56:59.827488",
        "meta_mean_motion": 15.19183583,
        "meta_eccentricity": 6.207e-05,
        "meta_inclination": 97.4325,
        "meta_ra_of_asc_node": 38.3594,
        "meta_arg_of_pericenter": 135.4458,
        "meta_mean_anomaly": 224.6827,
        "meta_ephemeris_type": 0,
        "meta_classification_type": "U",
        "meta_norad_cat_id": 43111,
        "meta_element_set_no": 999,
        "meta_rev_at_epoch": 43809,
        "meta_bstar": 0.00040218062,
        "meta_mean_motion_dot": 8.396e-05,
        "meta_mean_motion_ddot": 0,
        "tle_line1": "1 43111U 18004A   25340.62291467  .00008396  00000+0  40218-3 0  9997",
        "tle_line2": "2 43111  97.4325  38.3594 0000620 135.4458 224.6827 15.19183583438091"
      },
      "geometry": {
        "type": "Point",
        "coordinates": [
          24.234155961620292,
          62.706816959055374
        ]
      }
    },
    {
      "type": "Feature",
      "properties": {
        "norad_id": 43259,
        "name": "GAOFEN-1 02",
        "group": "resource",
        "lat": -32.266499981382445,
        "lon": 44.095411929846954,
        "alt_km": 646.6269744081083,
        "timestamp": "2025-12-07T03:52:32.127678+00:00",
        "meta_object_name": "GAOFEN-1 02",
        "meta_object_id": "2018-031A",
        "meta_epoch": "2025-12-06T15:00:40.214880",
        "meta_mean_motion": 14.7646136,
        "meta_eccentricity": 0.00013858,
        "meta_inclination": 98.0816,
        "meta_ra_of_asc_node": 38.4123,
        "meta_arg_of_pericenter": 238.9582,
        "meta_mean_anomaly": 121.1492,
        "meta_ephemeris_type": 0,
        "meta_classification_type": "U",
        "meta_norad_cat_id": 43259,
        "meta_element_set_no": 999,
        "meta_rev_at_epoch": 41428,
        "meta_bstar": 0.00027924417,
        "meta_mean_motion_dot": 1.892e-05,
        "meta_mean_motion_ddot": 0,
        "tle_line1": "1 43259U 18031A   25340.62546545  .00001892  00000+0  27924-3 0  9993",
        "tle_line2": "2 43259  98.0816  38.4123 0001385 238.9582 121.1492 14.76461360414289"
      },
      "geometry": {
        "type": "Point",
        "coordinates": [
          44.095411929846954,
          -32.266499981382445
        ]
      }
    }
  ]
}